{"type":"FeatureCollection","properties":{"exceededTransferLimit":true},"features":[{"type":"Feature","id":1,"geometry":{"type":"Point","coordinates":[-121.526747000373,38.5612969997576]},"properties":{"OBJECTID":1,"ID":1,"NDCCODE":"8114301301","REGION":"PC","RIVERCD":"SA","LOCKCD":"01","CHMBCD":"1","NOCHMB":1,"PMSDATA":"N","NAVSTR":"SACRAMENTO BARGE CANAL LOCK","CHAMBN":"MAIN","CHB1":"M","STR1":"L","PMSNAME":"BARGE CANAL LOCK","STATUS":"5","RIVER":"SACRAMENTO","RIVERMI":43,"BANK":"R","LIFT":4,"LENGTH":600,"CHMBUL":640,"WIDTH":86,"CHMBUW":86,"AUDPA":13,"AUDPB":13,"UPDPTHMS":13,"LWDPTHMS":13,"YEAROPEN":1961,"GATETYPE":"Miter","GATE":"3","CHNLGTH":2,"CHNDPTHA":13,"CHNDPTHB":12,"CHNWDTHA":120,"CHNWDTHB":120,"WWPRJCT":"SACRAMENTO RIVER","MOORING":"Y","MULTI":"NR","DIVISION":"SPD","DISTRICT":"SPK","STATE":"CA","MAINT1":"1","OPER1":"8","OWNER1":"1","TOWN":"West Sacramento","COUNTY1":"YOLO","MOORING_R":" ","SE_ANNO_CAD_DATA":""}},{"type":"Feature","id":2,"geometry":{"type":"Point","coordinates":[-122.614393999583,45.3569400001818]},"properties":{"OBJECTID":2,"ID":2,"NDCCODE":"9052650605","REGION":"PC","RIVERCD":"WI","LOCKCD":"15","CHMBCD":"1","NOCHMB":5,"PMSDATA":"Y","NAVSTR":"WILLAMETTE FALLS","CHAMBN":"MAIN","CHB1":"M","STR1":"L","PMSNAME":"WILLAMETTE FALLS GUARD LOCK","STATUS":"1","RIVER":"WILLAMETTE","RIVERMI":26,"BANK":"L","LIFT":10,"LENGTH":210,"CHMBUL":198,"WIDTH":40,"CHMBUW":38,"AUDPA":6,"AUDPB":6,"UPDPTHMS":6,"LWDPTHMS":8,"YEAROPEN":1873,"GATETYPE":"STRAIGHT LEAF MITER","GATE":"7","CHNLGTH":24,"CHNDPTHA":6,"CHNDPTHB":6,"CHNWDTHA":150,"CHNWDTHB":150,"WWPRJCT":"WILLAMETTE RIVER AT WILLAMETTE FALLS","MOORING":"Y","MULTI":"N","DIVISION":"NWD","DISTRICT":"NWP","STATE":"OR","MAINT1":"1","OPER1":"1","OWNER1":"1","TOWN":"WEST LINN","COUNTY1":"CLACKAMAS","MOORING_R":"FOR PAPER MILL ONLY","SE_ANNO_CAD_DATA":""}},{"type":"Feature","id":3,"geometry":{"type":"Point","coordinates":[-121.947259000302,45.6381239997237]},"properties":{"OBJECTID":3,"ID":3,"NDCCODE":"9014630602","REGION":"PC","RIVERCD":"CO","LOCKCD":"01","CHMBCD":"2","NOCHMB":1,"PMSDATA":"Y","NAVSTR":"BONNEVILLE","CHAMBN":"MAIN","CHB1":"M","STR1":"L","PMSNAME":"BONNEVILLE LOCK & DAM","STATUS":"1","RIVER":"COLUMBIA","RIVERMI":145.3,"BANK":"L","LIFT":65,"LENGTH":675,"CHMBUL":650,"WIDTH":86,"CHMBUW":84,"AUDPA":27,"AUDPB":27,"UPDPTHMS":19,"LWDPTHMS":24,"YEAROPEN":1993,"GATETYPE":"Miter, Arch Leaf","GATE":"1","CHNLGTH":1080,"CHNDPTHA":14,"CHNDPTHB":14,"CHNWDTHA":300,"CHNWDTHB":300,"WWPRJCT":"COLUMBIA RIVER","MOORING":"N","MULTI":"IFNP","DIVISION":"NWD","DISTRICT":"NWP","STATE":"OR","MAINT1":"1","OPER1":"1","OWNER1":"1","TOWN":"CASCADE LOCKS","COUNTY1":"MULTNOMAH","MOORING_R":"NONE","SE_ANNO_CAD_DATA":""}}]}